start=new Date('2023-06-28T00:00:00.000Z').valueOf();
sats=[{"OBJECT_NAME":"STARLINK-5350","ARG_OF_PERICENTER":"213.4757","MEAN_ELEMENT_THEORY":"SGP4","LAUNCH_DATE":"2023-05-04","TLE_LINE1":"1 56419U 23061AX  23178.21115222 -.00066636  00000-0 -12327-2 0  9990","TIME_SYSTEM":"UTC","COUNTRY_CODE":"US","OBJECT_TYPE":"PAYLOAD","BSTAR":"-0.00123270000000","RCS_SIZE":"LARGE","MEAN_ANOMALY":"146.6031","TLE_LINE2":"2 56419  43.0010 148.8976 0001124 213.4757 146.6031 15.48364394  8753","GP_ID":"234584539","NORAD_CAT_ID":"56419","SEMIMAJOR_AXIS":"6799.647","MEAN_MOTION":"15.48364394","ECCENTRICITY":"0.00011240","MEAN_MOTION_DOT":"-0.00066636","APOAPSIS":"422.277","PERIOD":"93.001","ELEMENT_SET_NO":"999","MEAN_MOTION_DDOT":"0.0000000000000","EPOCH":"2023-06-27T05:04:03.551808","CENTER_NAME":"EARTH","REV_AT_EPOCH":"875","EPHEMERIS_TYPE":"0","SITE":"AFETR","OBJECT_ID":"2023-061AX","REF_FRAME":"TEME","FILE":"3944120","RA_OF_ASC_NODE":"148.8976","DECAY_DATE":null,"INCLINATION":"43.0010","PERIAPSIS":"420.748","CLASSIFICATION_TYPE":"U"},{"OBJECT_ID":"2023-061AY","SITE":"AFETR","EPHEMERIS_TYPE":"0","REV_AT_EPOCH":"884","CENTER_NAME":"EARTH","EPOCH":"2023-06-27T14:19:50.344608","MEAN_MOTION_DDOT":"0.0000000000000","ELEMENT_SET_NO":"999","PERIOD":"91.640","CLASSIFICATION_TYPE":"U","INCLINATION":"42.9983","PERIAPSIS":"354.111","DECAY_DATE":null,"RA_OF_ASC_NODE":"143.9779","FILE":"3944426","REF_FRAME":"TEME","MEAN_ANOMALY":"100.7093","RCS_SIZE":"LARGE","BSTAR":"0.00001969400000","OBJECT_TYPE":"PAYLOAD","COUNTRY_CODE":"US","TIME_SYSTEM":"UTC","TLE_LINE1":"1 56420U 23061AY  23178.59711047  .00002132  00000-0  19694-4 0  9995","LAUNCH_DATE":"2023-05-04","MEAN_ELEMENT_THEORY":"SGP4","ARG_OF_PERICENTER":"259.3624","OBJECT_NAME":"STARLINK-6272","APOAPSIS":"355.921","MEAN_MOTION_DOT":"0.00002132","ECCENTRICITY":"0.00013440","MEAN_MOTION":"15.71358272","SEMIMAJOR_AXIS":"6733.151","GP_ID":"234592832","NORAD_CAT_ID":"56420","TLE_LINE2":"2 56420  42.9983 143.9779 0001344 259.3624 100.7093 15.71358272  8848"},{"TLE_LINE1":"1 56421U 23061AZ  23178.59732233  .00002445  00000-0  22088-4 0  9994","TIME_SYSTEM":"UTC","COUNTRY_CODE":"US","OBJECT_TYPE":"PAYLOAD","BSTAR":"0.00002208800000","MEAN_ANOMALY":"94.4208","RCS_SIZE":"LARGE","ARG_OF_PERICENTER":"265.6523","OBJECT_NAME":"STARLINK-6270","MEAN_ELEMENT_THEORY":"SGP4","LAUNCH_DATE":"2023-05-04","MEAN_MOTION_DOT":"0.00002445","APOAPSIS":"355.838","TLE_LINE2":"2 56421  43.0004 143.9790 0001199 265.6523  94.4208 15.71353229  8848","GP_ID":"234592870","NORAD_CAT_ID":"56421","SEMIMAJOR_AXIS":"6733.166","MEAN_MOTION":"15.71353229","ECCENTRICITY":"0.00011990","MEAN_MOTION_DDOT":"0.0000000000000","EPOCH":"2023-06-27T14:20:08.649312","CENTER_NAME":"EARTH","REV_AT_EPOCH":"884","EPHEMERIS_TYPE":"0","SITE":"AFETR","OBJECT_ID":"2023-061AZ","ELEMENT_SET_NO":"999","PERIOD":"91.641","RA_OF_ASC_NODE":"143.9790","DECAY_DATE":null,"INCLINATION":"43.0004","PERIAPSIS":"354.223","CLASSIFICATION_TYPE":"U","REF_FRAME":"TEME","FILE":"3944428"},{"MEAN_MOTION_DDOT":"0.0000000000000","EPOCH":"2023-06-27T06:41:53.458944","CENTER_NAME":"EARTH","REV_AT_EPOCH":"879","EPHEMERIS_TYPE":"0","SITE":"AFETR","OBJECT_ID":"2023-061BA","PERIOD":"91.640","ELEMENT_SET_NO":"999","RA_OF_ASC_NODE":"145.8945","DECAY_DATE":null,"PERIAPSIS":"354.201","INCLINATION":"42.9990","CLASSIFICATION_TYPE":"U","REF_FRAME":"TEME","FILE":"3944120","TLE_LINE1":"1 56422U 23061BA  23178.27909096  .00003597  00000-0  30856-4 0  9994","TIME_SYSTEM":"UTC","COUNTRY_CODE":"US","OBJECT_TYPE":"PAYLOAD","BSTAR":"0.00003085600000","RCS_SIZE":"LARGE","MEAN_ANOMALY":"96.5193","OBJECT_NAME":"STARLINK-6236","ARG_OF_PERICENTER":"263.5537","MEAN_ELEMENT_THEORY":"SGP4","LAUNCH_DATE":"2023-05-04","MEAN_MOTION_DOT":"0.00003597","APOAPSIS":"355.820","TLE_LINE2":"2 56422  42.9990 145.8945 0001202 263.5537  96.5193 15.71360254  8797","GP_ID":"234584536","NORAD_CAT_ID":"56422","SEMIMAJOR_AXIS":"6733.145","MEAN_MOTION":"15.71360254","ECCENTRICITY":"0.00012020"},{"PERIAPSIS":"353.904","INCLINATION":"42.9991","CLASSIFICATION_TYPE":"U","RA_OF_ASC_NODE":"149.7273","DECAY_DATE":null,"REF_FRAME":"TEME","FILE":"3943849","REV_AT_EPOCH":"869","EPHEMERIS_TYPE":"0","SITE":"AFETR","OBJECT_ID":"2023-061BB","MEAN_MOTION_DDOT":"0.0000000000000","EPOCH":"2023-06-26T15:26:45.306816","CENTER_NAME":"EARTH","PERIOD":"91.641","ELEMENT_SET_NO":"999","APOAPSIS":"356.180","MEAN_MOTION_DOT":"-0.00000370","MEAN_MOTION":"15.71349238","ECCENTRICITY":"0.00016900","TLE_LINE2":"2 56423  42.9991 149.7273 0001690 253.1643 106.9039 15.71349238  8693","GP_ID":"234578423","NORAD_CAT_ID":"56423","SEMIMAJOR_AXIS":"6733.177","OBJECT_TYPE":"PAYLOAD","BSTAR":"0.00000062746000","RCS_SIZE":"LARGE","MEAN_ANOMALY":"106.9039","TLE_LINE1":"1 56423U 23061BB  23177.64357994 -.00000370  00000-0  62746-6 0  9991","TIME_SYSTEM":"UTC","COUNTRY_CODE":"US","LAUNCH_DATE":"2023-05-04","OBJECT_NAME":"STARLINK-6239","ARG_OF_PERICENTER":"253.1643","MEAN_ELEMENT_THEORY":"SGP4"},{"MEAN_MOTION_DDOT":"0.0000000000000","EPOCH":"2023-06-27T06:41:35.527488","CENTER_NAME":"EARTH","REV_AT_EPOCH":"879","EPHEMERIS_TYPE":"0","SITE":"AFETR","OBJECT_ID":"2023-061BC","PERIOD":"91.641","ELEMENT_SET_NO":"999","RA_OF_ASC_NODE":"145.8912","DECAY_DATE":null,"INCLINATION":"43.0005","PERIAPSIS":"354.175","CLASSIFICATION_TYPE":"U","REF_FRAME":"TEME","FILE":"3944120","TLE_LINE1":"1 56424U 23061BC  23178.27888342  .00003294  00000-0  28570-4 0  9990","TIME_SYSTEM":"UTC","COUNTRY_CODE":"US","OBJECT_TYPE":"PAYLOAD","BSTAR":"0.00002857000000","RCS_SIZE":"LARGE","MEAN_ANOMALY":"77.6682","ARG_OF_PERICENTER":"282.4038","OBJECT_NAME":"STARLINK-6242","MEAN_ELEMENT_THEORY":"SGP4","LAUNCH_DATE":"2023-05-04","MEAN_MOTION_DOT":"0.00003294","APOAPSIS":"355.950","TLE_LINE2":"2 56424  43.0005 145.8912 0001318 282.4038  77.6682 15.71342121  8792","NORAD_CAT_ID":"56424","GP_ID":"234584526","SEMIMAJOR_AXIS":"6733.197","MEAN_MOTION":"15.71342121","ECCENTRICITY":"0.00013180"},{"SEMIMAJOR_AXIS":"6733.153","GP_ID":"234585042","NORAD_CAT_ID":"56425","TLE_LINE2":"2 56425  42.9981 145.8906 0001427 266.0288  94.0416 15.71357758  8793","ECCENTRICITY":"0.00014270","MEAN_MOTION":"15.71357758","MEAN_MOTION_DOT":"0.00002959","APOAPSIS":"355.978","MEAN_ELEMENT_THEORY":"SGP4","ARG_OF_PERICENTER":"266.0288","OBJECT_NAME":"STARLINK-6224","LAUNCH_DATE":"2023-05-04","COUNTRY_CODE":"US","TIME_SYSTEM":"UTC","TLE_LINE1":"1 56425U 23061BD  23178.27898642  .00002959  00000-0  25999-4 0  9994","MEAN_ANOMALY":"94.0416","RCS_SIZE":"LARGE","BSTAR":"0.00002599900000","OBJECT_TYPE":"PAYLOAD","FILE":"3944121","REF_FRAME":"TEME","DECAY_DATE":null,"RA_OF_ASC_NODE":"145.8906","CLASSIFICATION_TYPE":"U","INCLINATION":"42.9981","PERIAPSIS":"354.057","ELEMENT_SET_NO":"999","PERIOD":"91.640","CENTER_NAME":"EARTH","EPOCH":"2023-06-27T06:41:44.426688","MEAN_MOTION_DDOT":"0.0000000000000","OBJECT_ID":"2023-061BD","SITE":"AFETR","EPHEMERIS_TYPE":"0","REV_AT_EPOCH":"879"},{"BSTAR":"0.00000443230000","OBJECT_TYPE":"PAYLOAD","MEAN_ANOMALY":"88.4377","RCS_SIZE":"LARGE","TIME_SYSTEM":"UTC","TLE_LINE1":"1 56426U 23061BE  23178.59647775  .00000130  00000-0  44323-5 0  9991","COUNTRY_CODE":"US","LAUNCH_DATE":"2023-05-04","OBJECT_NAME":"STARLINK-5352","ARG_OF_PERICENTER":"271.6352","MEAN_ELEMENT_THEORY":"SGP4","APOAPSIS":"355.830","MEAN_MOTION_DOT":"0.00000130","ECCENTRICITY":"0.00012120","MEAN_MOTION":"15.71359214","TLE_LINE2":"2 56426  42.9998 143.9722 0001212 271.6352  88.4377 15.71359214  8841","SEMIMAJOR_AXIS":"6733.148","NORAD_CAT_ID":"56426","GP_ID":"234593075","EPHEMERIS_TYPE":"0","REV_AT_EPOCH":"884","OBJECT_ID":"2023-061BE","SITE":"AFETR","EPOCH":"2023-06-27T14:18:55.677600","MEAN_MOTION_DDOT":"0.0000000000000","CENTER_NAME":"EARTH","ELEMENT_SET_NO":"999","PERIOD":"91.640","INCLINATION":"42.9998","PERIAPSIS":"354.197","CLASSIFICATION_TYPE":"U","RA_OF_ASC_NODE":"143.9722","DECAY_DATE":null,"FILE":"3944445","REF_FRAME":"TEME"},{"DECAY_DATE":null,"RA_OF_ASC_NODE":"143.9723","CLASSIFICATION_TYPE":"U","INCLINATION":"43.0006","PERIAPSIS":"354.058","REF_FRAME":"TEME","FILE":"3944427","CENTER_NAME":"EARTH","MEAN_MOTION_DDOT":"0.0000000000000","EPOCH":"2023-06-27T14:19:04.782432","SITE":"AFETR","OBJECT_ID":"2023-061BF","REV_AT_EPOCH":"884","EPHEMERIS_TYPE":"0","PERIOD":"91.641","ELEMENT_SET_NO":"999","MEAN_MOTION_DOT":"0.00002146","APOAPSIS":"355.978","GP_ID":"234592843","NORAD_CAT_ID":"56427","SEMIMAJOR_AXIS":"6733.153","TLE_LINE2":"2 56427  43.0006 143.9723 0001426 263.7516  96.3189 15.71357591  8841","MEAN_MOTION":"15.71357591","ECCENTRICITY":"0.00014260","COUNTRY_CODE":"US","TLE_LINE1":"1 56427U 23061BF  23178.59658313  .00002146  00000-0  19803-4 0  9995","TIME_SYSTEM":"UTC","MEAN_ANOMALY":"96.3189","RCS_SIZE":"LARGE","OBJECT_TYPE":"PAYLOAD","BSTAR":"0.00001980300000","MEAN_ELEMENT_THEORY":"SGP4","ARG_OF_PERICENTER":"263.7516","OBJECT_NAME":"STARLINK-5724","LAUNCH_DATE":"2023-05-04"},{"CLASSIFICATION_TYPE":"U","PERIAPSIS":"354.052","INCLINATION":"42.9974","DECAY_DATE":null,"RA_OF_ASC_NODE":"145.8882","REF_FRAME":"TEME","FILE":"3944121","SITE":"AFETR","OBJECT_ID":"2023-061BG","REV_AT_EPOCH":"879","EPHEMERIS_TYPE":"0","CENTER_NAME":"EARTH","MEAN_MOTION_DDOT":"0.0000000000000","EPOCH":"2023-06-27T06:41:08.074752","PERIOD":"91.640","ELEMENT_SET_NO":"999","APOAPSIS":"355.971","MEAN_MOTION_DOT":"0.00004156","MEAN_MOTION":"15.71359822","ECCENTRICITY":"0.00014250","NORAD_CAT_ID":"56428","GP_ID":"234584543","SEMIMAJOR_AXIS":"6733.147","TLE_LINE2":"2 56428  42.9974 145.8882 0001425 266.0571  94.0134 15.71359822  8795","MEAN_ANOMALY":"94.0134","RCS_SIZE":"LARGE","OBJECT_TYPE":"PAYLOAD","BSTAR":"0.00003511100000","COUNTRY_CODE":"US","TLE_LINE1":"1 56428U 23061BG  23178.27856568  .00004156  00000-0  35111-4 0  9996","TIME_SYSTEM":"UTC","LAUNCH_DATE":"2023-05-04","MEAN_ELEMENT_THEORY":"SGP4","ARG_OF_PERICENTER":"266.0571","OBJECT_NAME":"STARLINK-6238"}];
